GSAT0101 (GALILEO-PFM)  
1 37846U 11060A   25328.13020640 -.00000063  00000+0  00000+0 0  9990
2 37846  57.0574 347.3256 0002577 308.2281  51.7929  1.70475782 87620
GSAT0102 (GALILEO-FM2)  
1 37847U 11060B   25333.62482772 -.00000056  00000+0  00000+0 0  9991
2 37847  57.0566 347.1768 0004677 305.2654 232.3794  1.70475771 87728
GSAT0103 (GALILEO-FM3)  
1 38857U 12055A   25332.86294819  .00000055  00000+0  00000+0 0  9994
2 38857  55.6842 107.0477 0002241 266.7022  93.2527  1.70473322 81593
GSAT0201 (GALILEO 5)    
1 40128U 14050A   25332.37507827 -.00000048  00000+0  00000+0 0  9990
2 40128  49.0938 281.6492 1646488 171.7362 191.3851  1.85519533 74599
GSAT0202 (GALILEO 6)    
1 40129U 14050B   25333.70935097 -.00000054  00000+0  00000+0 0  9990
2 40129  49.1079 280.6784 1647266 172.5408 190.2825  1.85520097 76784
GSAT0203 (GALILEO 7)    
1 40544U 15017A   25333.18759692 -.00000056  00000+0  00000+0 0  9994
2 40544  56.8498 347.0502 0006496 266.8168  93.1521  1.70475942 65799
GSAT0204 (GALILEO 8)    
1 40545U 15017B   25332.85645426 -.00000056  00000+0  00000+0 0  9997
2 40545  56.8551 347.0768 0006242 259.3843 100.5886  1.70475529 28832
GSAT0205 (GALILEO 9)    
1 40889U 15045A   25331.45171263  .00000027  00000+0  00000+0 0  9994
2 40889  55.0089 227.1810 0005802  37.9359 322.1807  1.70472924 63570
